KUIPER-00044            
1 64505U 25134F   25326.31001394 -.00027990  00000+0 -36941-2 0  9997
2 64505  51.9007   1.4239 0011530 278.7754  81.1902 14.79464828 23989
KUIPER-00046            
1 64506U 25134G   25326.31252399  .00006211  00000+0  83604-3 0  9991
2 64506  51.8997 357.8640 0011987 288.5805  71.3856 14.80255411 24037
KUIPER-00047            
1 64507U 25134H   25326.32910049  .00004888  00000+0  62653-3 0  9995
2 64507  51.8991 329.8192 0007856 299.5047  60.5132 14.82757225 24425
KUIPER-00048            
1 64508U 25134J   25326.50003471  .00040064  00000+0  52505-2 0  9998
2 64508  51.8996 329.5771 0002102  64.2133  47.3188 14.79953298  4823
KUIPER-00049            
1 64509U 25134K   25326.26026163 -.00023943  00000+0 -31156-2 0  9993
2 64509  51.9010 344.0916 0002852 295.5811  64.4856 14.80026596 24221
KUIPER-00050            
1 64510U 25134L   25326.20871536  .00007342  00000+0  66431-3 0  9999
2 64510  51.8915 340.2050 0004716 328.1325  31.9358 14.96305577 24274
KUIPER-00051            
1 64511U 25134M   25326.19666966  .00017519  00000+0  23199-2 0  9997
2 64511  51.9031 341.9508 0001451 288.6517  71.4288 14.79954351 24246
KUIPER-00052            
1 64512U 25134N   25326.32781178  .00224556  00000+0  19663-2 0  9998
2 64512  51.8674 298.3767 0005997  14.2697 345.8470 15.67623659 24852
