<?xml version="1.0" encoding="UTF-8"?>
<ndm xmlns:xsi="http://www.w3.org/2001/XMLSchema-instance" xsi:noNamespaceSchemaLocation="https://sanaregistry.org/r/ndmxml_unqualified/ndmxml-2.0.0-master-2.0.xsd">
<omm id="CCSDS_OMM_VERS" version="2.0">
<header><CREATION_DATE/><ORIGINATOR/></header><body><segment><metadata><OBJECT_NAME>KUIPER-00044</OBJECT_NAME><OBJECT_ID>2025-134F</OBJECT_ID><CENTER_NAME>EARTH</CENTER_NAME><REF_FRAME>TEME</REF_FRAME><TIME_SYSTEM>UTC</TIME_SYSTEM><MEAN_ELEMENT_THEORY>SGP4</MEAN_ELEMENT_THEORY></metadata><data><meanElements><EPOCH>2025-11-22T07:26:25.204416</EPOCH><MEAN_MOTION>14.79464828</MEAN_MOTION><ECCENTRICITY>.001153</ECCENTRICITY><INCLINATION>51.9007</INCLINATION><RA_OF_ASC_NODE>1.4239</RA_OF_ASC_NODE><ARG_OF_PERICENTER>278.7754</ARG_OF_PERICENTER><MEAN_ANOMALY>81.1902</MEAN_ANOMALY></meanElements><tleParameters><EPHEMERIS_TYPE>0</EPHEMERIS_TYPE><CLASSIFICATION_TYPE>U</CLASSIFICATION_TYPE><NORAD_CAT_ID>64505</NORAD_CAT_ID><ELEMENT_SET_NO>999</ELEMENT_SET_NO><REV_AT_EPOCH>2398</REV_AT_EPOCH><BSTAR>-.36941E-2</BSTAR><MEAN_MOTION_DOT>-.2799E-3</MEAN_MOTION_DOT><MEAN_MOTION_DDOT>0</MEAN_MOTION_DDOT></tleParameters></data></segment></body></omm>
<omm id="CCSDS_OMM_VERS" version="2.0">
<header><CREATION_DATE/><ORIGINATOR/></header><body><segment><metadata><OBJECT_NAME>KUIPER-00046</OBJECT_NAME><OBJECT_ID>2025-134G</OBJECT_ID><CENTER_NAME>EARTH</CENTER_NAME><REF_FRAME>TEME</REF_FRAME><TIME_SYSTEM>UTC</TIME_SYSTEM><MEAN_ELEMENT_THEORY>SGP4</MEAN_ELEMENT_THEORY></metadata><data><meanElements><EPOCH>2025-11-22T07:30:02.072736</EPOCH><MEAN_MOTION>14.80255411</MEAN_MOTION><ECCENTRICITY>.0011987</ECCENTRICITY><INCLINATION>51.8997</INCLINATION><RA_OF_ASC_NODE>357.8640</RA_OF_ASC_NODE><ARG_OF_PERICENTER>288.5805</ARG_OF_PERICENTER><MEAN_ANOMALY>71.3856</MEAN_ANOMALY></meanElements><tleParameters><EPHEMERIS_TYPE>0</EPHEMERIS_TYPE><CLASSIFICATION_TYPE>U</CLASSIFICATION_TYPE><NORAD_CAT_ID>64506</NORAD_CAT_ID><ELEMENT_SET_NO>999</ELEMENT_SET_NO><REV_AT_EPOCH>2403</REV_AT_EPOCH><BSTAR>.83604E-3</BSTAR><MEAN_MOTION_DOT>.6211E-4</MEAN_MOTION_DOT><MEAN_MOTION_DDOT>0</MEAN_MOTION_DDOT></tleParameters></data></segment></body></omm>
<omm id="CCSDS_OMM_VERS" version="2.0">
<header><CREATION_DATE/><ORIGINATOR/></header><body><segment><metadata><OBJECT_NAME>KUIPER-00047</OBJECT_NAME><OBJECT_ID>2025-134H</OBJECT_ID><CENTER_NAME>EARTH</CENTER_NAME><REF_FRAME>TEME</REF_FRAME><TIME_SYSTEM>UTC</TIME_SYSTEM><MEAN_ELEMENT_THEORY>SGP4</MEAN_ELEMENT_THEORY></metadata><data><meanElements><EPOCH>2025-11-22T07:53:54.282336</EPOCH><MEAN_MOTION>14.82757225</MEAN_MOTION><ECCENTRICITY>.0007856</ECCENTRICITY><INCLINATION>51.8991</INCLINATION><RA_OF_ASC_NODE>329.8192</RA_OF_ASC_NODE><ARG_OF_PERICENTER>299.5047</ARG_OF_PERICENTER><MEAN_ANOMALY>60.5132</MEAN_ANOMALY></meanElements><tleParameters><EPHEMERIS_TYPE>0</EPHEMERIS_TYPE><CLASSIFICATION_TYPE>U</CLASSIFICATION_TYPE><NORAD_CAT_ID>64507</NORAD_CAT_ID><ELEMENT_SET_NO>999</ELEMENT_SET_NO><REV_AT_EPOCH>2442</REV_AT_EPOCH><BSTAR>.62653E-3</BSTAR><MEAN_MOTION_DOT>.4888E-4</MEAN_MOTION_DOT><MEAN_MOTION_DDOT>0</MEAN_MOTION_DDOT></tleParameters></data></segment></body></omm>
<omm id="CCSDS_OMM_VERS" version="2.0">
<header><CREATION_DATE/><ORIGINATOR/></header><body><segment><metadata><OBJECT_NAME>KUIPER-00048</OBJECT_NAME><OBJECT_ID>2025-134J</OBJECT_ID><CENTER_NAME>EARTH</CENTER_NAME><REF_FRAME>TEME</REF_FRAME><TIME_SYSTEM>UTC</TIME_SYSTEM><MEAN_ELEMENT_THEORY>SGP4</MEAN_ELEMENT_THEORY></metadata><data><meanElements><EPOCH>2025-11-22T12:00:02.998944</EPOCH><MEAN_MOTION>14.79953298</MEAN_MOTION><ECCENTRICITY>.0002102</ECCENTRICITY><INCLINATION>51.8996</INCLINATION><RA_OF_ASC_NODE>329.5771</RA_OF_ASC_NODE><ARG_OF_PERICENTER>64.2133</ARG_OF_PERICENTER><MEAN_ANOMALY>47.3188</MEAN_ANOMALY></meanElements><tleParameters><EPHEMERIS_TYPE>0</EPHEMERIS_TYPE><CLASSIFICATION_TYPE>U</CLASSIFICATION_TYPE><NORAD_CAT_ID>64508</NORAD_CAT_ID><ELEMENT_SET_NO>999</ELEMENT_SET_NO><REV_AT_EPOCH>482</REV_AT_EPOCH><BSTAR>.52505E-2</BSTAR><MEAN_MOTION_DOT>.40064E-3</MEAN_MOTION_DOT><MEAN_MOTION_DDOT>0</MEAN_MOTION_DDOT></tleParameters></data></segment></body></omm>
<omm id="CCSDS_OMM_VERS" version="2.0">
<header><CREATION_DATE/><ORIGINATOR/></header><body><segment><metadata><OBJECT_NAME>KUIPER-00049</OBJECT_NAME><OBJECT_ID>2025-134K</OBJECT_ID><CENTER_NAME>EARTH</CENTER_NAME><REF_FRAME>TEME</REF_FRAME><TIME_SYSTEM>UTC</TIME_SYSTEM><MEAN_ELEMENT_THEORY>SGP4</MEAN_ELEMENT_THEORY></metadata><data><meanElements><EPOCH>2025-11-22T06:14:46.604832</EPOCH><MEAN_MOTION>14.80026596</MEAN_MOTION><ECCENTRICITY>.0002852</ECCENTRICITY><INCLINATION>51.9010</INCLINATION><RA_OF_ASC_NODE>344.0916</RA_OF_ASC_NODE><ARG_OF_PERICENTER>295.5811</ARG_OF_PERICENTER><MEAN_ANOMALY>64.4856</MEAN_ANOMALY></meanElements><tleParameters><EPHEMERIS_TYPE>0</EPHEMERIS_TYPE><CLASSIFICATION_TYPE>U</CLASSIFICATION_TYPE><NORAD_CAT_ID>64509</NORAD_CAT_ID><ELEMENT_SET_NO>999</ELEMENT_SET_NO><REV_AT_EPOCH>2422</REV_AT_EPOCH><BSTAR>-.31156E-2</BSTAR><MEAN_MOTION_DOT>-.23943E-3</MEAN_MOTION_DOT><MEAN_MOTION_DDOT>0</MEAN_MOTION_DDOT></tleParameters></data></segment></body></omm>
<omm id="CCSDS_OMM_VERS" version="2.0">
<header><CREATION_DATE/><ORIGINATOR/></header><body><segment><metadata><OBJECT_NAME>KUIPER-00050</OBJECT_NAME><OBJECT_ID>2025-134L</OBJECT_ID><CENTER_NAME>EARTH</CENTER_NAME><REF_FRAME>TEME</REF_FRAME><TIME_SYSTEM>UTC</TIME_SYSTEM><MEAN_ELEMENT_THEORY>SGP4</MEAN_ELEMENT_THEORY></metadata><data><meanElements><EPOCH>2025-11-22T05:00:33.007104</EPOCH><MEAN_MOTION>14.96305577</MEAN_MOTION><ECCENTRICITY>.0004716</ECCENTRICITY><INCLINATION>51.8915</INCLINATION><RA_OF_ASC_NODE>340.2050</RA_OF_ASC_NODE><ARG_OF_PERICENTER>328.1325</ARG_OF_PERICENTER><MEAN_ANOMALY>31.9358</MEAN_ANOMALY></meanElements><tleParameters><EPHEMERIS_TYPE>0</EPHEMERIS_TYPE><CLASSIFICATION_TYPE>U</CLASSIFICATION_TYPE><NORAD_CAT_ID>64510</NORAD_CAT_ID><ELEMENT_SET_NO>999</ELEMENT_SET_NO><REV_AT_EPOCH>2427</REV_AT_EPOCH><BSTAR>.66431E-3</BSTAR><MEAN_MOTION_DOT>.7342E-4</MEAN_MOTION_DOT><MEAN_MOTION_DDOT>0</MEAN_MOTION_DDOT></tleParameters></data></segment></body></omm>
<omm id="CCSDS_OMM_VERS" version="2.0">
<header><CREATION_DATE/><ORIGINATOR/></header><body><segment><metadata><OBJECT_NAME>KUIPER-00051</OBJECT_NAME><OBJECT_ID>2025-134M</OBJECT_ID><CENTER_NAME>EARTH</CENTER_NAME><REF_FRAME>TEME</REF_FRAME><TIME_SYSTEM>UTC</TIME_SYSTEM><MEAN_ELEMENT_THEORY>SGP4</MEAN_ELEMENT_THEORY></metadata><data><meanElements><EPOCH>2025-11-22T04:43:12.258624</EPOCH><MEAN_MOTION>14.79954351</MEAN_MOTION><ECCENTRICITY>.0001451</ECCENTRICITY><INCLINATION>51.9031</INCLINATION><RA_OF_ASC_NODE>341.9508</RA_OF_ASC_NODE><ARG_OF_PERICENTER>288.6517</ARG_OF_PERICENTER><MEAN_ANOMALY>71.4288</MEAN_ANOMALY></meanElements><tleParameters><EPHEMERIS_TYPE>0</EPHEMERIS_TYPE><CLASSIFICATION_TYPE>U</CLASSIFICATION_TYPE><NORAD_CAT_ID>64511</NORAD_CAT_ID><ELEMENT_SET_NO>999</ELEMENT_SET_NO><REV_AT_EPOCH>2424</REV_AT_EPOCH><BSTAR>.23199E-2</BSTAR><MEAN_MOTION_DOT>.17519E-3</MEAN_MOTION_DOT><MEAN_MOTION_DDOT>0</MEAN_MOTION_DDOT></tleParameters></data></segment></body></omm>
<omm id="CCSDS_OMM_VERS" version="2.0">
<header><CREATION_DATE/><ORIGINATOR/></header><body><segment><metadata><OBJECT_NAME>KUIPER-00052</OBJECT_NAME><OBJECT_ID>2025-134N</OBJECT_ID><CENTER_NAME>EARTH</CENTER_NAME><REF_FRAME>TEME</REF_FRAME><TIME_SYSTEM>UTC</TIME_SYSTEM><MEAN_ELEMENT_THEORY>SGP4</MEAN_ELEMENT_THEORY></metadata><data><meanElements><EPOCH>2025-11-22T07:52:02.937792</EPOCH><MEAN_MOTION>15.67623659</MEAN_MOTION><ECCENTRICITY>.0005997</ECCENTRICITY><INCLINATION>51.8674</INCLINATION><RA_OF_ASC_NODE>298.3767</RA_OF_ASC_NODE><ARG_OF_PERICENTER>14.2697</ARG_OF_PERICENTER><MEAN_ANOMALY>345.8470</MEAN_ANOMALY></meanElements><tleParameters><EPHEMERIS_TYPE>0</EPHEMERIS_TYPE><CLASSIFICATION_TYPE>U</CLASSIFICATION_TYPE><NORAD_CAT_ID>64512</NORAD_CAT_ID><ELEMENT_SET_NO>999</ELEMENT_SET_NO><REV_AT_EPOCH>2485</REV_AT_EPOCH><BSTAR>.19663E-2</BSTAR><MEAN_MOTION_DOT>.224556E-2</MEAN_MOTION_DOT><MEAN_MOTION_DDOT>0</MEAN_MOTION_DDOT></tleParameters></data></segment></body></omm>

</ndm>
